[
    {
        "Altitude(m)": 702693.1419018725,
        "Argument of Periapsis(deg)": 0.0034170363559881197,
        "Eccentricity": 0.0,
        "Inclination(deg)": 45.0,
        "Latitude(deg)": 13.899119593285322,
        "Longitude(deg)": 179.03789236700635,
        "Mean Anomaly(deg)": 19.82356499424428,
        "RAAN(deg)": 264.99677441756256,
        "Satellite Name": "Constellation 1 1167",
        "Satellite Number": 1167,
        "Semi-Major Axis(m)": 7083131.272910544,
        "Time(s)": 57
    },
    {
        "Altitude(m)": 702694.0674499166,
        "Argument of Periapsis(deg)": 0.003476984362233526,
        "Eccentricity": 0.0,
        "Inclination(deg)": 45.0,
        "Latitude(deg)": 13.940992650238067,
        "Longitude(deg)": 179.07927189498596,
        "Mean Anomaly(deg)": 19.884266134494165,
        "RAAN(deg)": 264.996717828397,
        "Satellite Name": "Constellation 1 1167",
        "Satellite Number": 1167,
        "Semi-Major Axis(m)": 7083131.272910544,
        "Time(s)": 58
    },
    {
        "Altitude(m)": 702695.0109184769,
        "Argument of Periapsis(deg)": 0.003536932368478932,
        "Eccentricity": 0.0,
        "Inclination(deg)": 45.0,
        "Latitude(deg)": 13.982857096757778,
        "Longitude(deg)": 179.12066767994548,
        "Mean Anomaly(deg)": 19.944967274744002,
        "RAAN(deg)": 264.9966612392314,
        "Satellite Name": "Constellation 1 1167",
        "Satellite Number": 1167,
        "Semi-Major Axis(m)": 7083131.272910544,
        "Time(s)": 59
    },
    {
        "Altitude(m)": 702695.9722854005,
        "Argument of Periapsis(deg)": 0.003596880374724337,
        "Eccentricity": 0.0,
        "Inclination(deg)": 45.0,
        "Latitude(deg)": 14.024712902789082,
        "Longitude(deg)": 179.16208011180615,
        "Mean Anomaly(deg)": 20.005668414993988,
        "RAAN(deg)": 264.9966046500658,
        "Satellite Name": "Constellation 1 1167",
        "Satellite Number": 1167,
        "Semi-Major Axis(m)": 7083131.272910544,
        "Time(s)": 60
    },
    {
        "Altitude(m)": 702696.9515284467,
        "Argument of Periapsis(deg)": 0.0036568283809697427,
        "Eccentricity": 0.0,
        "Inclination(deg)": 45.0,
        "Latitude(deg)": 14.066560038245239,
        "Longitude(deg)": 179.20350907622716,
        "Mean Anomaly(deg)": 20.066369555243824,
        "RAAN(deg)": 264.9965480609003,
        "Satellite Name": "Constellation 1 1167",
        "Satellite Number": 1167,
        "Semi-Major Axis(m)": 7083131.272910544,
        "Time(s)": 61
    },
    {
        "Altitude(m)": 702697.9486253054,
        "Argument of Periapsis(deg)": 0.003716776387215149,
        "Eccentricity": 0.0,
        "Inclination(deg)": 45.0,
        "Latitude(deg)": 14.108398473007169,
        "Longitude(deg)": 179.2449546269948,
        "Mean Anomaly(deg)": 20.12707069549371,
        "RAAN(deg)": 264.99649147173466,
        "Satellite Name": "Constellation 1 1167",
        "Satellite Number": 1167,
        "Semi-Major Axis(m)": 7083131.272910544,
        "Time(s)": 62
    },
    {
        "Altitude(m)": 702698.9635535999,
        "Argument of Periapsis(deg)": 0.003776724393460554,
        "Eccentricity": 0.0,
        "Inclination(deg)": 45.0,
        "Latitude(deg)": 14.150228176923287,
        "Longitude(deg)": 179.28641681792502,
        "Mean Anomaly(deg)": 20.187771835743597,
        "RAAN(deg)": 264.99643488256913,
        "Satellite Name": "Constellation 1 1167",
        "Satellite Number": 1167,
        "Semi-Major Axis(m)": 7083131.272910544,
        "Time(s)": 63
    },
    {
        "Altitude(m)": 702699.9962908619,
        "Argument of Periapsis(deg)": 0.003836672399705959,
        "Eccentricity": 0.0,
        "Inclination(deg)": 45.0,
        "Latitude(deg)": 14.192049119809802,
        "Longitude(deg)": 179.32789570286332,
        "Mean Anomaly(deg)": 20.248472975993536,
        "RAAN(deg)": 264.99637829340355,
        "Satellite Name": "Constellation 1 1167",
        "Satellite Number": 1167,
        "Semi-Major Axis(m)": 7083131.272910544,
        "Time(s)": 64
    },
    {
        "Altitude(m)": 702701.046814569,
        "Argument of Periapsis(deg)": 0.003896620405951365,
        "Eccentricity": 0.0,
        "Inclination(deg)": 45.0,
        "Latitude(deg)": 14.233861271450115,
        "Longitude(deg)": 179.36939133568498,
        "Mean Anomaly(deg)": 20.30917411624342,
        "RAAN(deg)": 264.996321704238,
        "Satellite Name": "Constellation 1 1167",
        "Satellite Number": 1167,
        "Semi-Major Axis(m)": 7083131.272910544,
        "Time(s)": 65
    },
    {
        "Altitude(m)": 702702.1151021116,
        "Argument of Periapsis(deg)": 0.003956568412196771,
        "Eccentricity": 0.0,
        "Inclination(deg)": 45.0,
        "Latitude(deg)": 14.275664601595135,
        "Longitude(deg)": 179.41090377029502,
        "Mean Anomaly(deg)": 20.36987525649331,
        "RAAN(deg)": 264.99626511507245,
        "Satellite Name": "Constellation 1 1167",
        "Satellite Number": 1167,
        "Semi-Major Axis(m)": 7083131.272910544,
        "Time(s)": 66
    },
    {
        "Altitude(m)": 702703.2011308126,
        "Argument of Periapsis(deg)": 0.004016516418442176,
        "Eccentricity": 0.0,
        "Inclination(deg)": 45.0,
        "Latitude(deg)": 14.31745907996329,
        "Longitude(deg)": 179.45243289253128,
        "Mean Anomaly(deg)": 20.430576396743245,
        "RAAN(deg)": 264.9962085259068,
        "Satellite Name": "Constellation 1 1167",
        "Satellite Number": 1167,
        "Semi-Major Axis(m)": 7083131.272910544,
        "Time(s)": 67
    },
    {
        "Altitude(m)": 702704.3048779262,
        "Argument of Periapsis(deg)": 0.004076464424687581,
        "Eccentricity": 0.0,
        "Inclination(deg)": 45.0,
        "Latitude(deg)": 14.359244676239165,
        "Longitude(deg)": 179.49397909255282,
        "Mean Anomaly(deg)": 20.49127753699313,
        "RAAN(deg)": 264.9961519367413,
        "Satellite Name": "Constellation 1 1167",
        "Satellite Number": 1167,
        "Semi-Major Axis(m)": 7083131.272910544,
        "Time(s)": 68
    },
    {
        "Altitude(m)": 702705.4263206177,
        "Argument of Periapsis(deg)": 0.004136412430932987,
        "Eccentricity": 0.0,
        "Inclination(deg)": 45.0,
        "Latitude(deg)": 14.401021360075362,
        "Longitude(deg)": 179.5355422562571,
        "Mean Anomaly(deg)": 20.551978677243017,
        "RAAN(deg)": 264.9960953475757,
        "Satellite Name": "Constellation 1 1167",
        "Satellite Number": 1167,
        "Semi-Major Axis(m)": 7083131.272910544,
        "Time(s)": 69
    },
    {
        "Altitude(m)": 702706.5654360019,
        "Argument of Periapsis(deg)": 0.004196360437178394,
        "Eccentricity": 0.0,
        "Inclination(deg)": 45.0,
        "Latitude(deg)": 14.44278910109102,
        "Longitude(deg)": 179.5771224376688,
        "Mean Anomaly(deg)": 20.612679817492907,
        "RAAN(deg)": 264.9960387584102,
        "Satellite Name": "Constellation 1 1167",
        "Satellite Number": 1167,
        "Semi-Major Axis(m)": 7083131.272910544,
        "Time(s)": 70
    },
    {
        "Altitude(m)": 702707.7222010971,
        "Argument of Periapsis(deg)": 0.004256308443423799,
        "Eccentricity": 0.0,
        "Inclination(deg)": 45.0,
        "Latitude(deg)": 14.484547868872113,
        "Longitude(deg)": 179.61871969084257,
        "Mean Anomaly(deg)": 20.673380957742843,
        "RAAN(deg)": 264.9959821692446,
        "Satellite Name": "Constellation 1 1167",
        "Satellite Number": 1167,
        "Semi-Major Axis(m)": 7083131.272910544,
        "Time(s)": 71
    },
    {
        "Altitude(m)": 702708.8965928716,
        "Argument of Periapsis(deg)": 0.004316256449669204,
        "Eccentricity": 0.0,
        "Inclination(deg)": 45.0,
        "Latitude(deg)": 14.526297632971287,
        "Longitude(deg)": 179.66033406986293,
        "Mean Anomaly(deg)": 20.73408209799273,
        "RAAN(deg)": 264.99592558007896,
        "Satellite Name": "Constellation 1 1167",
        "Satellite Number": 1167,
        "Semi-Major Axis(m)": 7083131.272910544,
        "Time(s)": 72
    },
    {
        "Altitude(m)": 702710.0885882013,
        "Argument of Periapsis(deg)": 0.00437620445591461,
        "Eccentricity": 0.0,
        "Inclination(deg)": 45.0,
        "Latitude(deg)": 14.568038362907798,
        "Longitude(deg)": 179.70196562884462,
        "Mean Anomaly(deg)": 20.794783238242616,
        "RAAN(deg)": 264.99586899091344,
        "Satellite Name": "Constellation 1 1167",
        "Satellite Number": 1167,
        "Semi-Major Axis(m)": 7083131.272910544,
        "Time(s)": 73
    },
    {
        "Altitude(m)": 702711.298163901,
        "Argument of Periapsis(deg)": 0.004436152462160016,
        "Eccentricity": 0.0,
        "Inclination(deg)": 45.0,
        "Latitude(deg)": 14.609770028167647,
        "Longitude(deg)": 179.74361425383535,
        "Mean Anomaly(deg)": 20.85548437849255,
        "RAAN(deg)": 264.99581240174786,
        "Satellite Name": "Constellation 1 1167",
        "Satellite Number": 1167,
        "Semi-Major Axis(m)": 7083131.272910544,
        "Time(s)": 74
    },
    {
        "Altitude(m)": 702712.5252967088,
        "Argument of Periapsis(deg)": 0.0044961004684054215,
        "Eccentricity": 0.0,
        "Inclination(deg)": 45.0,
        "Latitude(deg)": 14.651492598202287,
        "Longitude(deg)": 179.7852803352042,
        "Mean Anomaly(deg)": 20.916185518742438,
        "RAAN(deg)": 264.99575581258233,
        "Satellite Name": "Constellation 1 1167",
        "Satellite Number": 1167,
        "Semi-Major Axis(m)": 7083131.272910544,
        "Time(s)": 75
    }
]